STARLINK-1802
1 16702C 20073AJ  21326.14254043 -.00008577  00000-0 -57472-3 0  3269
2 16702  53.0541  63.1134 0000586 142.5593 265.7201 15.06403938    18
